{
    "links": {
        "self": "http://www.neowsapp.com/rest/v1/neo/54017098?api_key=iIulBulltgU6a56xZRHN4H3l9WmuAYTsLGpBGhQ2"
    },
    "id": "54017098",
    "neo_reference_id": "54017098",
    "name": "(2020 KF1)",
    "designation": "2020 KF1",
    "nasa_jpl_url": "http://ssd.jpl.nasa.gov/sbdb.cgi?sstr=54017098",
    "absolute_magnitude_h": 24.513,
    "estimated_diameter": {
        "kilometers": {
            "estimated_diameter_min": 0.0332625068,
            "estimated_diameter_max": 0.0743772264
        },
        "meters": {
            "estimated_diameter_min": 33.2625068201,
            "estimated_diameter_max": 74.3772263518
        },
        "miles": {
            "estimated_diameter_min": 0.0206683571,
            "estimated_diameter_max": 0.0462158515
        },
        "feet": {
            "estimated_diameter_min": 109.1289628757,
            "estimated_diameter_max": 244.0197793041
        }
    },
    "is_potentially_hazardous_asteroid": false,
    "close_approach_data": [
        {
            "close_approach_date": "2020-05-26",
            "close_approach_date_full": "2020-May-26 18:13",
            "epoch_date_close_approach": 1590516780000,
            "relative_velocity": {
                "kilometers_per_second": "6.4301591532",
                "kilometers_per_hour": "23148.5729516665",
                "miles_per_hour": "14383.6230098841"
            },
            "miss_distance": {
                "astronomical": "0.065500915",
                "lunar": "25.479855935",
                "kilometers": "9798797.36705105",
                "miles": "6088690.34756249"
            },
            "orbiting_body": "Earth"
        },
        {
            "close_approach_date": "2121-05-02",
            "close_approach_date_full": "2121-May-02 09:23",
            "epoch_date_close_approach": 4775620980000,
            "relative_velocity": {
                "kilometers_per_second": "8.3947632742",
                "kilometers_per_hour": "30221.1477869914",
                "miles_per_hour": "18778.2459679781"
            },
            "miss_distance": {
                "astronomical": "0.0891912193",
                "lunar": "34.6953843077",
                "kilometers": "13342816.429982891",
                "miles": "8290841.6781542558"
            },
            "orbiting_body": "Earth"
        }
    ],
    "orbital_data": {
        "orbit_id": "2",
        "orbit_determination_date": "2020-06-10 05:55:34",
        "first_observation_date": "2020-04-21",
        "last_observation_date": "2020-06-10",
        "data_arc_in_days": 50,
        "observations_used": 32,
        "orbit_uncertainty": "6",
        "minimum_orbit_intersection": ".0528528",
        "jupiter_tisserand_invariant": "3.701",
        "epoch_osculation": "2459000.5",
        "eccentricity": ".4736484678411643",
        "semi_major_axis": "1.988630817684701",
        "inclination": "4.999147469270941",
        "ascending_node_longitude": "210.8370087755385",
        "orbital_period": "1024.30590155029",
        "perihelion_distance": "1.04671887778662",
        "perihelion_argument": "31.58183668099992",
        "aphelion_distance": "2.93054275758278",
        "perihelion_time": "2458994.589964175185",
        "mean_anomaly": "2.077126465554094",
        "mean_motion": ".3514575084016787",
        "equinox": "J2000",
        "orbit_class": {
            "orbit_class_type": "AMO",
            "orbit_class_description": "Near-Earth asteroid orbits similar to that of 1221 Amor",
            "orbit_class_range": "1.017 AU < q (perihelion) < 1.3 AU"
        }
    },
    "is_sentry_object": false
}